H1 CPF 01  gfz 2022 11 28 13  8322 terrasarx 
H2 0702601  6201 31698    2022 11 28 12 59 42 2022 12 03 00 00 42   120 1 1  0 0 0
H9
10 0 59912  26622.000000  0   -4081387.082   2237005.700   5068753.194
10 0 59912  26742.000000  0   -3365565.065   2083189.676   5627830.117
10 0 59912  26862.000000  0   -2594092.025   1879978.628   6087922.816
10 0 59912  26982.000000  0   -1781299.790   1630085.271   6440980.645
10 0 59912  27102.000000  0    -942171.490   1337289.193   6680834.785
10 0 59912  27222.000000  0     -92063.027   1006378.852   6803298.537
10 0 59912  27342.000000  0     753577.333    643072.534   6806235.360
10 0 59912  27462.000000  0    1579488.543    253919.483   6689593.639
10 0 59912  27582.000000  0    2370870.760   -153817.349   6455407.758
10 0 59912  27702.000000  0    3113650.111   -572296.028   6107766.138
10 0 59912  27822.000000  0    3794730.973   -993245.019   5652744.664
10 0 59912  27942.000000  0    4402230.649  -1408125.337   5098306.034
10 0 59912  28062.000000  0    4925691.647  -1808302.810   4454166.373
10 0 59912  28182.000000  0    5356269.595  -2185226.327   3731630.794
10 0 59912  28302.000000  0    5686892.128  -2530609.598   2943397.639
10 0 59912  28422.000000  0    5912382.582  -2836611.911   2103334.545
10 0 59912  28542.000000  0    6029546.981  -3096012.913   1226232.314
10 0 59912  28662.000000  0    6037223.171  -3302378.353    327539.013
10 0 59912  28782.000000  0    5936287.399  -3450210.857   -576920.182
10 0 59912  28902.000000  0    5729620.863  -3535082.945  -1471230.859
10 0 59912  29022.000000  0    5422033.665  -3553747.227  -2339678.704
10 0 59912  29142.000000  0    5020151.638  -3504222.647  -3167031.722
10 0 59912  29262.000000  0    4532268.448  -3385854.701  -3938811.691
10 0 59912  29382.000000  0    3968166.848  -3199348.418  -4641547.953
10 0 59912  29502.000000  0    3338914.007  -2946773.088  -5263009.545
10 0 59912  29622.000000  0    2656637.024  -2631539.260  -5792410.152
10 0 59912  29742.000000  0    1934285.578  -2258351.194  -6220584.833
10 0 59912  29862.000000  0    1185384.836  -1833134.623  -6540139.392
10 0 59912  29982.000000  0     423781.919  -1362939.411  -6745567.721
10 0 59912  30102.000000  0    -336607.052   -855822.012  -6833336.171
10 0 59912  30222.000000  0   -1082045.719   -320709.127  -6801936.892
10 0 59912  30342.000000  0   -1799219.809    232755.909  -6651910.810
10 0 59912  30462.000000  0   -2475469.525    794382.613  -6385838.465
10 0 59912  30582.000000  0   -3099007.928   1353615.882  -6008300.414
10 0 59912  30702.000000  0   -3659123.794   1899729.475  -5525807.498
10 0 59912  30822.000000  0   -4146367.600   2422028.173  -4946700.489
10 0 59912  30942.000000  0   -4552715.925   2910055.958  -4281016.768
10 0 59912  31062.000000  0   -4871709.698   3353804.797  -3540326.016
10 0 59912  31182.000000  0   -5098564.838   3743920.812  -2737538.578
10 0 59912  31302.000000  0   -5230252.036   4071903.742  -1886685.587
10 0 59912  31422.000000  0   -5265543.003   4330293.551  -1002675.671
10 0 59912  31542.000000  0   -5205021.993   4512840.289   -101031.362
10 0 59912  31662.000000  0   -5051060.582   4614652.585    802389.386
10 0 59912  31782.000000  0   -4807755.463   4632319.112   1691681.334
10 0 59912  31902.000000  0   -4480830.679   4563999.821   2551181.430
10 0 59912  32022.000000  0   -4077506.705   4409485.839   3365753.069
10 0 59912  32142.000000  0   -3606340.552   4170225.913   4121059.198
10 0 59912  32262.000000  0   -3077041.829   3849318.822   4803818.592
10 0 59912  32382.000000  0   -2500268.810   3451472.574   5402041.199
10 0 59912  32502.000000  0   -1887408.950   2982931.205   5905237.198
10 0 59912  32622.000000  0   -1250349.632   2451371.575   6304596.702
10 0 59912  32742.000000  0    -601244.387   1865772.049   6593137.065
10 0 59912  32862.000000  0      47718.618   1236257.754   6765818.006
10 0 59912  32982.000000  0     684545.307    573923.522   6819624.924
10 0 59912  33102.000000  0    1297656.552   -109361.653   6753617.492
10 0 59912  33222.000000  0    1876097.529   -801166.342   6568945.754
10 0 59912  33342.000000  0    2409732.998  -1488722.378   6268831.704
10 0 59912  33462.000000  0    2889425.756  -2159159.622   5858517.598
10 0 59912  33582.000000  0    3307195.887  -2799747.769   5345179.826
10 0 59912  33702.000000  0    3656356.731  -3398139.779   4737809.351
10 0 59912  33822.000000  0    3931626.136  -3942613.329   4047059.941
10 0 59912  33942.000000  0    4129210.440  -4422305.255   3285064.943
10 0 59912  34062.000000  0    4246858.554  -4827433.844   2465225.538
10 0 59912  34182.000000  0    4283885.461  -5149503.500   1601973.234
10 0 59912  34302.000000  0    4241163.402  -5381486.205    710510.951
10 0 59912  34422.000000  0    4121080.470  -5517974.760   -193461.751
10 0 59912  34542.000000  0    3927469.482  -5555305.000  -1094032.513
10 0 59912  34662.000000  0    3665506.727  -5491643.734  -1975366.092
10 0 59912  34782.000000  0    3341583.629  -5327038.125  -2821990.304
10 0 59912  34902.000000  0    2963156.204  -5063427.665  -3619073.558
10 0 59912  35022.000000  0    2538574.501  -4704617.789  -4352687.363
10 0 59912  35142.000000  0    2076897.398  -4256217.011  -5010048.145
10 0 59912  35262.000000  0    1587698.772  -3725539.155  -5579734.045
10 0 59912  35382.000000  0    1080869.820  -3121475.273  -6051873.925
10 0 59912  35502.000000  0     566420.240  -2454338.711  -6418307.982
10 0 59912  35622.000000  0      54282.500  -1735684.933  -6672717.984
10 0 59912  35742.000000  0    -445876.151   -978109.840  -6810725.540
10 0 59912  35862.000000  0    -924830.973   -195030.733  -6829959.154
10 0 59912  35982.000000  0   -1373965.500    599546.655  -6730089.768
10 0 59912  36102.000000  0   -1785423.060   1391272.054  -6512835.291
10 0 59912  36222.000000  0   -2152240.864   2165703.459  -6181934.065
10 0 59912  36342.000000  0   -2468466.587   2908564.435  -5743088.472
10 0 59912  36462.000000  0   -2729255.483   3606004.605  -5203876.945
10 0 59912  36582.000000  0   -2930946.404   4244857.993  -4573634.993
10 0 59912  36702.000000  0   -3071115.540   4812895.329  -3863304.020
10 0 59912  36822.000000  0   -3148604.928   5299063.314  -3085249.321
10 0 59912  36942.000000  0   -3163525.686   5693706.061  -2253052.446
10 0 59912  37062.000000  0   -3117236.893   5988766.700  -1381278.477
10 0 59912  37182.000000  0   -3012297.280   6177960.835   -485219.652
10 0 59912  37302.000000  0   -2852392.750   6256915.866    419375.784
10 0 59912  37422.000000  0   -2642242.103   6223276.992   1316587.593
10 0 59912  37542.000000  0   -2387478.093   6076770.348   2190615.524
10 0 59912  37662.000000  0   -2094509.527   5819221.709   3026066.879
10 0 59912  37782.000000  0   -1770369.750   5454533.466   3808234.349
10 0 59912  37902.000000  0   -1422554.902   4988620.855   4523359.697
10 0 59912  38022.000000  0   -1058855.306   4429308.400   5158878.565
10 0 59912  38142.000000  0    -687183.136   3786189.253   5703640.406
10 0 59912  38262.000000  0    -315403.429   3070452.285   6148100.609
10 0 59912  38382.000000  0      48829.967   2294679.334   6484482.485
10 0 59912  38502.000000  0     398229.665   1472619.269   6706906.954
10 0 59912  38622.000000  0     726018.948    618940.801   6811489.880
10 0 59912  38742.000000  0    1026061.646   -251029.877   6796404.507
10 0 59912  38862.000000  0    1292976.021  -1121582.985   6661912.362
10 0 59912  38982.000000  0    1522231.189  -1976908.522   6410359.439
10 0 59912  39102.000000  0    1710224.373  -2801383.061   6046138.489
10 0 59912  39222.000000  0    1854337.862  -3579856.816   5575617.064
10 0 59912  39342.000000  0    1952974.424  -4297935.069   5007031.176
10 0 59912  39462.000000  0    2005571.156  -4942247.941   4350346.707
10 0 59912  39582.000000  0    2012592.515  -5500706.797   3617090.944
10 0 59912  39702.000000  0    1975500.444  -5962740.749   2820151.927
10 0 59912  39822.000000  0    1896701.543  -6319505.042   1973551.105
10 0 59912  39942.000000  0    1779475.278  -6564057.941   1092194.248
10 0 59912  40062.000000  0    1627882.901  -6691502.883    191604.038
10 0 59912  40182.000000  0    1446659.002  -6699091.596   -712360.668
10 0 59912  40302.000000  0    1241088.171  -6586283.642  -1603795.761
10 0 59912  40422.000000  0    1016869.948  -6354757.418  -2467040.480
10 0 59912  40542.000000  0     779976.913  -6008377.961  -3286958.668
10 0 59912  40662.000000  0     536511.212  -5553121.840  -4049207.584
10 0 59912  40782.000000  0     292559.935  -4996961.665  -4740488.950
10 0 59912  40902.000000  0      54054.005  -4349713.624  -5348776.502
10 0 59912  41022.000000  0    -173365.714  -3622853.273  -5863517.909
10 0 59912  41142.000000  0    -384472.500  -2829302.942  -6275807.962
10 0 59912  41262.000000  0    -574565.557  -1983196.475  -6578531.302
10 0 59912  41382.000000  0    -739567.820  -1099625.905  -6766473.809
10 0 59912  41502.000000  0    -876108.130   -194374.634  -6836403.525
10 0 59912  41622.000000  0    -981586.414    716360.097  -6787119.547
10 0 59912  41742.000000  0   -1054221.457   1616249.463  -6619469.618
10 0 59912  41862.000000  0   -1093080.502   2489118.372  -6336336.934
10 0 59912  41982.000000  0   -1098090.111   3319229.518  -5942597.086
10 0 59912  42102.000000  0   -1070028.627   4091564.569  -5445043.501
10 0 59912  42222.000000  0   -1010499.571   4792095.738  -4852281.070
10 0 59912  42342.000000  0    -921887.054   5408045.139  -4174588.931
10 0 59912  42462.000000  0    -807293.417   5928125.689  -3423751.631
10 0 59912  42582.000000  0    -670459.844   6342757.635  -2612861.775
10 0 59912  42702.000000  0    -515671.465   6644257.164  -1756096.818
10 0 59912  42822.000000  0    -347649.321   6826991.161   -868471.905
10 0 59912  42942.000000  0    -171430.963   6887493.792     34425.649
10 0 59912  43062.000000  0       7757.522   6824541.516    936715.969
99
